STARLINK-2704           
1 48643U 21044F   26068.39422650 -.00000403  00000+0 -14789-5 0  9991
2 48643  53.1594 115.2316 0001359  88.4412 271.6745 15.30192842263781
KUIPER-00175            
1 67135U 25301C   26068.97960463  .00019968  00000+0  66732-3 0  9998
2 67135  51.8781  63.6978 0002279  50.5695 309.5490 15.30996371 13854
